NORAD_CAT_ID,OBJECT_NAME,OBJECT_TYPE,EPOCH,MEAN_MOTION,ECCENTRICITY,INCLINATION,RA_OF_ASC_NODE,ARG_OF_PERICENTER,MEAN_ANOMALY,BSTAR,MEAN_MOTION_DOT,MEAN_MOTION_DDOT,TLE_LINE0,TLE_LINE1,TLE_LINE2,SEMIMAJOR_AXIS,PERIOD,APOGEE,PERIGEE,DECAYED
52119.0,STARLINK-3558,PAYLOAD,2024-02-25 16:53:00,15.0885879,0.0001253,53.2164,174.5181,90.2222,269.8913,0.00030527,4.576e-05,0.0,0 STARLINK-3558,1 52119U 22029AH  24056.70347832  .00004576  00000-0  30527-3 0  9996,2 52119  53.2164 174.5181 0001253  90.2222 269.8913 15.08858790108622,6917.823,95.436,540.555,538.821,0.0
52119.0,STARLINK-3558,PAYLOAD,2024-02-26 11:57:39,15.08830245,0.0001503,53.2168,170.9508,80.3665,279.7497,-0.00015443,-2.744e-05,0.0,0 STARLINK-3558,1 52119U 22029AH  24057.49836936 -.00002744  00000-0 -15443-3 0  9998,2 52119  53.2168 170.9508 0001503  80.3665 279.7497 15.08830245108754,6917.91,95.438,540.815,538.735,0.0
52119.0,STARLINK-3558,PAYLOAD,2024-02-26 13:33:02,15.08830269,0.0001526,53.2164,170.6532,79.368,280.7484,-0.00014121,-2.534e-05,0.0,0 STARLINK-3558,1 52119U 22029AH  24057.56460986 -.00002534  00000-0 -14121-3 0  9993,2 52119  53.2164 170.6532 0001526  79.3680 280.7484 15.08830269108758,6917.91,95.438,540.831,538.719,0.0
52119.0,STARLINK-3558,PAYLOAD,2024-02-26 15:08:25,15.08833134,0.0001577,53.217,170.355,73.2994,286.8171,-9.083e-05,-1.733e-05,0.0,0 STARLINK-3558,1 52119U 22029AH  24057.63084990 -.00001733  00000-0 -90830-4 0  9990,2 52119  53.2170 170.3550 0001577  73.2994 286.8171 15.08833134108764,6917.901,95.438,540.857,538.675,0.0
52119.0,STARLINK-3558,PAYLOAD,2024-02-27 11:48:26,15.08843642,0.0001505,53.2159,166.4894,72.1176,287.998,0.00019426,2.805e-05,0.0,0 STARLINK-3558,1 52119U 22029AH  24058.49196952  .00002805  00000-0  19426-3 0  9997,2 52119  53.2159 166.4894 0001505  72.1176 287.9980 15.08843642108900,6917.869,95.437,540.775,538.693,0.0
52119.0,STARLINK-3558,PAYLOAD,2024-02-27 13:23:49,15.08844235,0.0001439,53.2154,166.192,71.0497,289.0651,0.00036774,5.57e-05,0.0,0 STARLINK-3558,1 52119U 22029AH  24058.55820996  .00005570  00000-0  36774-3 0  9993,2 52119  53.2154 166.1920 0001439  71.0497 289.0651 15.08844235108909,6917.867,95.437,540.728,538.737,0.0
52119.0,STARLINK-3558,PAYLOAD,2024-02-28 11:39:13,15.08836201,0.0001332,53.2166,162.0298,69.3729,290.7406,0.00028715,4.285e-05,0.0,0 STARLINK-3558,1 52119U 22029AH  24059.48557666  .00004285  00000-0  28715-3 0  9995,2 52119  53.2166 162.0298 0001332  69.3729 290.7406 15.08836201109053,6917.892,95.438,540.678,538.836,0.0
52119.0,STARLINK-3558,PAYLOAD,2024-02-28 13:14:36,15.08840116,0.0001492,53.2164,161.7306,78.0675,282.0484,0.00019984,2.894e-05,0.0,0 STARLINK-3558,1 52119U 22029AH  24059.55181430  .00002894  00000-0  19984-3 0  9997,2 52119  53.2164 161.7306 0001492  78.0675 282.0484 15.08840116109051,6917.88,95.438,540.777,538.713,0.0
52119.0,STARLINK-3558,PAYLOAD,2024-02-29 11:30:00,15.08851202,0.000155,53.2174,157.5674,84.3039,275.813,0.00020926,3.045e-05,0.0,0 STARLINK-3558,1 52119U 22029AH  24060.47916856  .00003045  00000-0  20926-3 0  9995,2 52119  53.2174 157.5674 0001550  84.3039 275.8130 15.08851202109205,6917.846,95.437,540.783,538.639,0.0
52119.0,STARLINK-3558,PAYLOAD,2024-02-29 13:05:23,15.08851675,0.0001483,53.2171,157.2708,83.3598,276.7563,0.00025509,3.775e-05,0.0,0 STARLINK-3558,1 52119U 22029AH  24060.54540783  .00003775  00000-0  25509-3 0  9997,2 52119  53.2171 157.2708 0001483  83.3598 276.7563 15.08851675109205,6917.845,95.437,540.736,538.684,0.0
52119.0,STARLINK-3558,PAYLOAD,2024-03-01 11:20:47,15.08844378,0.0001531,53.217,153.1077,84.3941,275.7226,0.0001135,1.519e-05,0.0,0 STARLINK-3558,1 52119U 22029AH  24061.47276880  .00001519  00000-0  11350-3 0  9997,2 52119  53.2170 153.1077 0001531  84.3941 275.7226 15.08844378109358,6917.867,95.437,540.791,538.673,0.0
52119.0,STARLINK-3558,PAYLOAD,2024-03-01 12:56:10,15.08847072,0.000152,53.2168,152.8098,88.1959,271.9207,0.00018021,2.582e-05,0.0,0 STARLINK-3558,1 52119U 22029AH  24061.53900685  .00002582  00000-0  18021-3 0  9994,2 52119  53.2168 152.8098 0001520  88.1959 271.9207 15.08847072109354,6917.859,95.437,540.775,538.672,0.0
52119.0,STARLINK-3558,PAYLOAD,2024-03-01 16:06:56,15.08852961,0.0001439,53.2153,152.2116,81.6673,278.4482,0.0002019,2.928e-05,0.0,0 STARLINK-3558,1 52119U 22029AH  24061.67148289  .00002928  00000-0  20190-3 0  9997,2 52119  53.2153 152.2116 0001439  81.6673 278.4482 15.08852961109386,6917.841,95.437,540.701,538.71,0.0
52119.0,STARLINK-3558,PAYLOAD,2024-03-02 11:11:33,15.08846466,0.0001521,53.2176,148.6475,91.5159,268.6007,3.1838e-05,2.19e-06,0.0,0 STARLINK-3558,1 52119U 22029AH  24062.46636462  .00000219  00000-0  31838-4 0  9993,2 52119  53.2176 148.6475 0001521  91.5159 268.6007 15.08846466109500,6917.861,95.437,540.778,538.673,0.0
52119.0,STARLINK-3558,PAYLOAD,2024-03-03 11:02:21,15.08839202,0.0001748,53.2168,144.1876,53.8749,306.2405,-1.0956e-05,-4.62e-06,0.0,0 STARLINK-3558,1 52119U 22029AH  24063.45997057 -.00000462  00000-0 -10956-4 0  9993,2 52119  53.2168 144.1876 0001748  53.8749 306.2405 15.08839202109651,6917.883,95.438,540.957,538.539,0.0
52119.0,STARLINK-3558,PAYLOAD,2024-03-03 12:37:44,15.08836891,0.0001625,53.2167,143.8899,63.3558,296.7601,-5.1931e-05,-1.114e-05,0.0,0 STARLINK-3558,1 52119U 22029AH  24063.52621095 -.00001114  00000-0 -51931-4 0  9990,2 52119  53.2167 143.8899 0001625  63.3558 296.7601 15.08836891109651,6917.89,95.438,540.879,538.631,0.0
52119.0,STARLINK-3558,PAYLOAD,2024-03-04 12:28:31,15.08852787,0.000158,53.2172,139.4298,77.013,283.1039,0.00028573,4.264e-05,0.0,0 STARLINK-3558,1 52119U 22029AH  24064.51980376  .00004264  00000-0  28573-3 0  9992,2 52119  53.2172 139.4298 0001580  77.0130 283.1039 15.08852787109803,6917.841,95.437,540.799,538.613,0.0
52119.0,STARLINK-3558,PAYLOAD,2024-03-05 04:22:23,15.0882798,0.0001429,53.2168,136.4553,93.6231,266.4925,-4.7237e-05,-1.039e-05,0.0,0 STARLINK-3558,1 52119U 22029AH  24065.18221766 -.00001039  00000-0 -47237-4 0  9995,2 52119  53.2168 136.4553 0001429  93.6231 266.4925 15.08827980109914,6917.917,95.438,540.771,538.794,0.0
52119.0,STARLINK-3558,PAYLOAD,2024-03-05 12:19:19,15.08827576,0.0001408,53.2164,134.9678,92.5324,267.583,-3.4467e-05,-8.36e-06,0.0,0 STARLINK-3558,1 52119U 22029AH  24065.51342125 -.00000836  00000-0 -34467-4 0  9990,2 52119  53.2164 134.9678 0001408  92.5324 267.5830 15.08827576109951,6917.918,95.438,540.757,538.809,0.0
52119.0,STARLINK-3558,PAYLOAD,2024-03-06 04:13:10,15.08841303,0.0001458,53.2173,131.9923,107.1328,252.9824,-1.6622e-05,-5.53e-06,0.0,0 STARLINK-3558,1 52119U 22029AH  24066.17581868 -.00000553  00000-0 -16622-4 0  9991,2 52119  53.2173 131.9923 0001458 107.1328 252.9824 15.08841303110062,6917.876,95.437,540.75,538.733,0.0
52119.0,STARLINK-3558,PAYLOAD,2024-03-06 13:45:29,15.08848886,0.0001449,53.2176,130.2111,101.0131,259.1024,0.00054758,8.44e-05,0.0,0 STARLINK-3558,1 52119U 22029AH  24066.57325849  .00008440  00000-0  54758-3 0  9992,2 52119  53.2176 130.2111 0001449 101.0131 259.1024 15.08848886110111,6917.853,95.437,540.721,538.716,0.0
52119.0,STARLINK-3558,PAYLOAD,2024-03-07 04:03:59,15.0882028,0.0001251,53.2173,127.5348,87.0901,273.0234,-4.6267e-05,-1.024e-05,0.0,0 STARLINK-3558,1 52119U 22029AH  24067.16943480 -.00001024  00000-0 -46267-4 0  9995,2 52119  53.2173 127.5348 0001251  87.0901 273.0234 15.08820280110215,6917.941,95.439,540.671,538.94,0.0
52119.0,STARLINK-3558,PAYLOAD,2024-03-07 10:25:31,15.08827563,0.0001388,53.2166,126.3451,90.747,269.3681,0.00041148,6.265e-05,0.0,0 STARLINK-3558,1 52119U 22029AH  24067.43439541  .00006265  00000-0  41148-3 0  9995,2 52119  53.2166 126.3451 0001388  90.7470 269.3681 15.08827563110240,6917.918,95.438,540.744,538.823,0.0
52119.0,STARLINK-3558,PAYLOAD,2024-03-08 10:16:18,15.08866331,0.0001422,53.2167,121.8838,89.6603,270.4552,0.0013857,0.0002185,0.0,0 STARLINK-3558,1 52119U 22029AH  24068.42799334  .00021850  00000-0  13857-2 0  9996,2 52119  53.2167 121.8838 0001422  89.6603 270.4552 15.08866331110408,6917.8,95.436,540.649,538.681,0.0
52119.0,STARLINK-3558,PAYLOAD,2024-03-08 13:27:04,15.08869418,0.0001409,53.2165,121.2887,89.3313,270.7841,0.0012496,0.00019671,0.0,0 STARLINK-3558,1 52119U 22029AH  24068.56047083  .00019671  00000-0  12496-2 0  9994,2 52119  53.2165 121.2887 0001409  89.3313 270.7841 15.08869418110418,6917.79,95.436,540.63,538.681,0.0
52119.0,STARLINK-3558,PAYLOAD,2024-03-09 03:45:32,15.08866294,0.0001064,53.2165,118.6131,93.6776,266.4338,0.00062758,9.721e-05,0.0,0 STARLINK-3558,1 52119U 22029AH  24069.15662425  .00009721  00000-0  62758-3 0  9995,2 52119  53.2165 118.6131 0001064  93.6776 266.4338 15.08866294110511,6917.8,95.436,540.401,538.929,0.0
52119.0,STARLINK-3558,PAYLOAD,2024-03-09 13:17:51,15.08854423,0.0001423,53.216,116.8291,95.2355,264.8799,0.0012439,0.00019572,0.0,0 STARLINK-3558,1 52119U 22029AH  24069.55406263  .00019572  00000-0  12439-2 0  9990,2 52119  53.2160 116.8291 0001423  95.2355 264.8799 15.08854423110562,6917.836,95.437,540.686,538.717,0.0
52119.0,STARLINK-3558,PAYLOAD,2024-03-09 19:39:23,15.08860496,0.00014,53.2156,115.6388,95.6534,264.4617,0.0011249,0.0001767,0.0,0 STARLINK-3558,1 52119U 22029AH  24069.81901995  .00017670  00000-0  11249-2 0  9996,2 52119  53.2156 115.6388 0001400  95.6534 264.4617 15.08860496110606,6917.818,95.436,540.651,538.714,0.0
52119.0,STARLINK-3558,PAYLOAD,2024-03-10 02:00:56,15.08861129,0.0003123,53.2159,114.4498,83.1877,276.947,0.0013174,0.00020754,0.0,0 STARLINK-3558,1 52119U 22029AH  24070.08398459  .00020754  00000-0  13174-2 0  9998,2 52119  53.2159 114.4498 0003123  83.1877 276.9470 15.08861129110658,6917.816,95.436,541.841,537.52,0.0
52119.0,STARLINK-3558,PAYLOAD,2024-03-10 08:22:28,15.08836871,0.000149,53.2162,113.26,97.3525,262.7637,0.00015983,2.256e-05,0.0,0 STARLINK-3558,1 52119U 22029AH  24070.34894372  .00002256  00000-0  15983-3 0  9990,2 52119  53.2162 113.2600 0001490  97.3525 262.7637 15.08836871110694,6917.89,95.438,540.786,538.724,0.0
